{
  "type": "FeatureCollection",
  "features": [
    {
      "type": "Feature",
      "properties": {
        "norad_id": 60182,
        "name": "ALOS-4 (DAICHI-4)",
        "group": "resource",
        "lat": -32.11748595072961,
        "lon": -89.96568642202654,
        "alt_km": 637.4641435534477,
        "timestamp": "2025-12-26T09:30:53.285837+00:00",
        "meta_object_name": "ALOS-4 (DAICHI-4)",
        "meta_object_id": "2024-123A",
        "meta_epoch": "2025-12-26T05:18:41.872608",
        "meta_mean_motion": 14.79474592,
        "meta_eccentricity": 0.0001403,
        "meta_inclination": 97.9216,
        "meta_ra_of_asc_node": 94.876,
        "meta_arg_of_pericenter": 100.7354,
        "meta_mean_anomaly": 259.4015,
        "meta_ephemeris_type": 0,
        "meta_classification_type": "U",
        "meta_norad_cat_id": 60182,
        "meta_element_set_no": 999,
        "meta_rev_at_epoch": 8030,
        "meta_bstar": 0.00029406,
        "meta_mean_motion_dot": 2.145e-05,
        "meta_mean_motion_ddot": 0,
        "tle_line1": "1 60182U 24123A   25360.22131797  .00002145  00000+0  29406-3 0  9992",
        "tle_line2": "2 60182  97.9216  94.8760 0001403 100.7354 259.4015 14.79474592 80304"
      },
      "geometry": {
        "type": "Point",
        "coordinates": [
          -89.96568642202654,
          -32.11748595072961
        ]
      }
    },
    {
      "type": "Feature",
      "properties": {
        "norad_id": 60452,
        "name": "LEGION 3",
        "group": "resource",
        "lat": -4.909449043208311,
        "lon": -128.01767644086794,
        "alt_km": 517.2882558102165,
        "timestamp": "2025-12-26T09:30:53.285847+00:00",
        "meta_object_name": "LEGION 3",
        "meta_object_id": "2024-146A",
        "meta_epoch": "2025-12-26T01:38:14.896608",
        "meta_mean_motion": 15.15894786,
        "meta_eccentricity": 0.0015767,
        "meta_inclination": 45.0002,
        "meta_ra_of_asc_node": 238.6741,
        "meta_arg_of_pericenter": 269.5324,
        "meta_mean_anomaly": 90.3748,
        "meta_ephemeris_type": 0,
        "meta_classification_type": "U",
        "meta_norad_cat_id": 60452,
        "meta_element_set_no": 999,
        "meta_rev_at_epoch": 7575,
        "meta_bstar": 0.00028452,
        "meta_mean_motion_dot": 5.294e-05,
        "meta_mean_motion_ddot": 0,
        "tle_line1": "1 60452U 24146A   25360.06822797  .00005294  00000+0  28452-3 0  9994",
        "tle_line2": "2 60452  45.0002 238.6741 0015767 269.5324  90.3748 15.15894786 75757"
      },
      "geometry": {
        "type": "Point",
        "coordinates": [
          -128.01767644086794,
          -4.909449043208311
        ]
      }
    },
    {
      "type": "Feature",
      "properties": {
        "norad_id": 60453,
        "name": "LEGION 4",
        "group": "resource",
        "lat": -5.200566547581135,
        "lon": -36.513808133931654,
        "alt_km": 514.1783257856277,
        "timestamp": "2025-12-26T09:30:53.285858+00:00",
        "meta_object_name": "LEGION 4",
        "meta_object_id": "2024-146B",
        "meta_epoch": "2025-12-26T03:13:15.917664",
        "meta_mean_motion": 15.15969113,
        "meta_eccentricity": 0.0007962,
        "meta_inclination": 45.0397,
        "meta_ra_of_asc_node": 330.1107,
        "meta_arg_of_pericenter": 26.1315,
        "meta_mean_anomaly": 333.9965,
        "meta_ephemeris_type": 0,
        "meta_classification_type": "U",
        "meta_norad_cat_id": 60453,
        "meta_element_set_no": 999,
        "meta_rev_at_epoch": 7461,
        "meta_bstar": 0.00032127,
        "meta_mean_motion_dot": 6.014e-05,
        "meta_mean_motion_ddot": 0,
        "tle_line1": "1 60453U 24146B   25360.13421201  .00006014  00000+0  32127-3 0  9993",
        "tle_line2": "2 60453  45.0397 330.1107 0007962  26.1315 333.9965 15.15969113 74612"
      },
      "geometry": {
        "type": "Point",
        "coordinates": [
          -36.513808133931654,
          -5.200566547581135
        ]
      }
    },
    {
      "type": "Feature",
      "properties": {
        "norad_id": 60989,
        "name": "SENTINEL-2C",
        "group": "resource",
        "lat": 69.8058577472755,
        "lon": -83.12542748145898,
        "alt_km": 781.2215407358735,
        "timestamp": "2025-12-26T09:30:53.285869+00:00",
        "meta_object_name": "SENTINEL-2C",
        "meta_object_id": "2024-157A",
        "meta_epoch": "2025-12-25T19:35:01.945536",
        "meta_mean_motion": 14.30817849,
        "meta_eccentricity": 0.00013862,
        "meta_inclination": 98.5666,
        "meta_ra_of_asc_node": 72.1092,
        "meta_arg_of_pericenter": 102.9981,
        "meta_mean_anomaly": 257.1356,
        "meta_ephemeris_type": 0,
        "meta_classification_type": "U",
        "meta_norad_cat_id": 60989,
        "meta_element_set_no": 999,
        "meta_rev_at_epoch": 6819,
        "meta_bstar": 0.00010095972,
        "meta_mean_motion_dot": 2.21e-06,
        "meta_mean_motion_ddot": 0,
        "tle_line1": "1 60989U 24157A   25359.81599474  .00000221  00000+0  10096-3 0  9995",
        "tle_line2": "2 60989  98.5666  72.1092 0001386 102.9981 257.1356 14.30817849 68191"
      },
      "geometry": {
        "type": "Point",
        "coordinates": [
          -83.12542748145898,
          69.8058577472755
        ]
      }
    },
    {
      "type": "Feature",
      "properties": {
        "norad_id": 61735,
        "name": "IONOSFERA-M 1",
        "group": "resource",
        "lat": -22.785702521220937,
        "lon": -126.15591075500346,
        "alt_km": 821.3467930628349,
        "timestamp": "2025-12-26T09:30:53.285882+00:00",
        "meta_object_name": "IONOSFERA-M 1",
        "meta_object_id": "2024-199A",
        "meta_epoch": "2025-12-26T04:33:33.774336",
        "meta_mean_motion": 14.2271696,
        "meta_eccentricity": 2.94e-05,
        "meta_inclination": 98.7396,
        "meta_ra_of_asc_node": 229.9344,
        "meta_arg_of_pericenter": 4.4693,
        "meta_mean_anomaly": 355.6487,
        "meta_ephemeris_type": 0,
        "meta_classification_type": "U",
        "meta_norad_cat_id": 61735,
        "meta_element_set_no": 999,
        "meta_rev_at_epoch": 10310,
        "meta_bstar": 4.4443e-05,
        "meta_mean_motion_dot": 5.5e-07,
        "meta_mean_motion_ddot": 0,
        "tle_line1": "1 61735U 24199A   25360.18997424  .00000055  00000+0  44443-4 0  9999",
        "tle_line2": "2 61735  98.7396 229.9344 0000294   4.4693 355.6487 14.22716960103101"
      },
      "geometry": {
        "type": "Point",
        "coordinates": [
          -126.15591075500346,
          -22.785702521220937
        ]
      }
    },
    {
      "type": "Feature",
      "properties": {
        "norad_id": 61736,
        "name": "IONOSFERA-M 2",
        "group": "resource",
        "lat": 19.81527382372861,
        "lon": 53.22879977759048,
        "alt_km": 815.6806823977959,
        "timestamp": "2025-12-26T09:30:53.285892+00:00",
        "meta_object_name": "IONOSFERA-M 2",
        "meta_object_id": "2024-199B",
        "meta_epoch": "2025-12-26T03:42:09.251136",
        "meta_mean_motion": 14.22719114,
        "meta_eccentricity": 0.0001873,
        "meta_inclination": 98.7394,
        "meta_ra_of_asc_node": 229.8113,
        "meta_arg_of_pericenter": 93.2609,
        "meta_mean_anomaly": 266.8783,
        "meta_ephemeris_type": 0,
        "meta_classification_type": "U",
        "meta_norad_cat_id": 61736,
        "meta_element_set_no": 999,
        "meta_rev_at_epoch": 10622,
        "meta_bstar": 4.6056e-05,
        "meta_mean_motion_dot": 5.9e-07,
        "meta_mean_motion_ddot": 0,
        "tle_line1": "1 61736U 24199B   25360.15427374  .00000059  00000+0  46056-4 0  9995",
        "tle_line2": "2 61736  98.7394 229.8113 0001873  93.2609 266.8783 14.22719114106222"
      },
      "geometry": {
        "type": "Point",
        "coordinates": [
          53.22879977759048,
          19.81527382372861
        ]
      }
    },
    {
      "type": "Feature",
      "properties": {
        "norad_id": 63772,
        "name": "BIOMASS",
        "group": "resource",
        "lat": 31.33472550034016,
        "lon": -179.7484267766067,
        "alt_km": 666.7373612376778,
        "timestamp": "2025-12-26T09:30:53.285903+00:00",
        "meta_object_name": "BIOMASS",
        "meta_object_id": "2025-090A",
        "meta_epoch": "2025-12-26T02:49:31.508256",
        "meta_mean_motion": 14.67540449,
        "meta_eccentricity": 0.0001052,
        "meta_inclination": 98.0697,
        "meta_ra_of_asc_node": 184.9324,
        "meta_arg_of_pericenter": 84.6676,
        "meta_mean_anomaly": 275.4649,
        "meta_ephemeris_type": 0,
        "meta_classification_type": "U",
        "meta_norad_cat_id": 63772,
        "meta_element_set_no": 999,
        "meta_rev_at_epoch": 3530,
        "meta_bstar": 0.00023089,
        "meta_mean_motion_dot": 1.262e-05,
        "meta_mean_motion_ddot": 0,
        "tle_line1": "1 63772U 25090A   25360.11772579  .00001262  00000+0  23089-3 0  9991",
        "tle_line2": "2 63772  98.0697 184.9324 0001052  84.6676 275.4649 14.67540449 35304"
      },
      "geometry": {
        "type": "Point",
        "coordinates": [
          -179.7484267766067,
          31.33472550034016
        ]
      }
    }
  ]
}